KINEIS-5E               
1 62083U 24219C   26065.82825683  .00001561  00000+0  25457-3 0  9996
2 62083  97.9606 227.5137 0003077 137.8793 222.2651 14.72331319 68705
KINEIS-5A               
1 62084U 24219D   26065.86008392  .00001188  00000+0  19626-3 0  9997
2 62084  97.9775 227.6468 0001708 210.6368 149.4740 14.72178187 68710
KINEIS-5B               
1 62085U 24219E   26065.83514608  .00002574  00000+0  36332-3 0  9990
2 62085  97.9940 230.3402 0001303 201.2773 158.8383 14.78060069 68881
KINEIS-2C               
1 62929U 25028B   26065.73688285  .00001753  00000+0  28511-3 0  9996
2 62929  98.0280 120.9405 0001164  37.7766 322.3523 14.72306537 57534
KINEIS-2D               
1 62930U 25028C   26065.17832699  .00002391  00000+0  36009-3 0  9996
2 62930  97.9413 119.5730 0003886 154.9793 205.1606 14.75326777 57522
KINEIS-2E               
1 62931U 25028D   26065.58046782  .00001975  00000+0  28933-3 0  9996
2 62931  97.9088 119.3596 0001866 113.2701 246.8706 14.76703430 57633
KINEIS-2A               
1 62932U 25028E   26065.42503662  .00001563  00000+0  25649-3 0  9999
2 62932  98.0729 120.9524 0003448 203.6513 156.4536 14.72089613 57486
KINEIS-2B               
1 62934U 25028G   26065.58374511  .00001813  00000+0  28926-3 0  9996
2 62934  97.9799 120.2677 0004887 116.0388 244.1324 14.73104363 57559
KINEIS-4E               
1 63300U 25056A   26065.89994245  .00003238  00000+0  51940-3 0  9996
2 63300  97.9937 192.2537 0000785 184.3479 175.7721 14.72350689 52072
KINEIS-4C               
1 63301U 25056B   26064.89295461  .00003151  00000+0  50581-3 0  9994
2 63301  97.9972 191.4275 0000355  67.1158 293.0087 14.72336552 51933
KINEIS-4D               
1 63302U 25056C   26065.23780826  .00002819  00000+0  45358-3 0  9994
2 63302  97.9949 191.7445 0000507 311.1621  48.9542 14.72321809 51983
KINEIS-4A               
1 63303U 25056D   26064.93120366 -.00000939  00000+0 -14085-3 0  9994
2 63303  97.9935 191.3695 0001639 259.3732 100.7291 14.72296229 51935
KINEIS-4B               
1 63304U 25056E   26065.79779640  .00003104  00000+0  49891-3 0  9993
2 63304  97.9937 192.2672 0002301 198.4863 161.6261 14.72290756 52054
