[{"OBJECT_NAME":"KINEIS-5E","OBJECT_ID":"2024-219C","EPOCH":"2026-03-06T19:52:41.390112","MEAN_MOTION":14.72331319,"ECCENTRICITY":0.0003077,"INCLINATION":97.9606,"RA_OF_ASC_NODE":227.5137,"ARG_OF_PERICENTER":137.8793,"MEAN_ANOMALY":222.2651,"EPHEMERIS_TYPE":0,"CLASSIFICATION_TYPE":"U","NORAD_CAT_ID":62083,"ELEMENT_SET_NO":999,"REV_AT_EPOCH":6870,"BSTAR":0.00025457,"MEAN_MOTION_DOT":1.561e-5,"MEAN_MOTION_DDOT":0},{"OBJECT_NAME":"KINEIS-5A","OBJECT_ID":"2024-219D","EPOCH":"2026-03-06T20:38:31.250688","MEAN_MOTION":14.72178187,"ECCENTRICITY":0.0001708,"INCLINATION":97.9775,"RA_OF_ASC_NODE":227.6468,"ARG_OF_PERICENTER":210.6368,"MEAN_ANOMALY":149.474,"EPHEMERIS_TYPE":0,"CLASSIFICATION_TYPE":"U","NORAD_CAT_ID":62084,"ELEMENT_SET_NO":999,"REV_AT_EPOCH":6871,"BSTAR":0.00019626,"MEAN_MOTION_DOT":1.188e-5,"MEAN_MOTION_DDOT":0},{"OBJECT_NAME":"KINEIS-5B","OBJECT_ID":"2024-219E","EPOCH":"2026-03-06T20:02:36.621312","MEAN_MOTION":14.78060069,"ECCENTRICITY":0.0001303,"INCLINATION":97.994,"RA_OF_ASC_NODE":230.3402,"ARG_OF_PERICENTER":201.2773,"MEAN_ANOMALY":158.8383,"EPHEMERIS_TYPE":0,"CLASSIFICATION_TYPE":"U","NORAD_CAT_ID":62085,"ELEMENT_SET_NO":999,"REV_AT_EPOCH":6888,"BSTAR":0.00036332,"MEAN_MOTION_DOT":2.574e-5,"MEAN_MOTION_DDOT":0},{"OBJECT_NAME":"KINEIS-2C","OBJECT_ID":"2025-028B","EPOCH":"2026-03-06T17:41:06.678240","MEAN_MOTION":14.72306537,"ECCENTRICITY":0.0001164,"INCLINATION":98.028,"RA_OF_ASC_NODE":120.9405,"ARG_OF_PERICENTER":37.7766,"MEAN_ANOMALY":322.3523,"EPHEMERIS_TYPE":0,"CLASSIFICATION_TYPE":"U","NORAD_CAT_ID":62929,"ELEMENT_SET_NO":999,"REV_AT_EPOCH":5753,"BSTAR":0.00028511,"MEAN_MOTION_DOT":1.753e-5,"MEAN_MOTION_DDOT":0},{"OBJECT_NAME":"KINEIS-2D","OBJECT_ID":"2025-028C","EPOCH":"2026-03-06T04:16:47.451936","MEAN_MOTION":14.75326777,"ECCENTRICITY":0.00038863,"INCLINATION":97.9413,"RA_OF_ASC_NODE":119.573,"ARG_OF_PERICENTER":154.9793,"MEAN_ANOMALY":205.1606,"EPHEMERIS_TYPE":0,"CLASSIFICATION_TYPE":"U","NORAD_CAT_ID":62930,"ELEMENT_SET_NO":999,"REV_AT_EPOCH":5752,"BSTAR":0.00036009398,"MEAN_MOTION_DOT":2.391e-5,"MEAN_MOTION_DDOT":0},{"OBJECT_NAME":"KINEIS-2E","OBJECT_ID":"2025-028D","EPOCH":"2026-03-06T13:55:52.419648","MEAN_MOTION":14.7670343,"ECCENTRICITY":0.00018669,"INCLINATION":97.9088,"RA_OF_ASC_NODE":119.3596,"ARG_OF_PERICENTER":113.2701,"MEAN_ANOMALY":246.8706,"EPHEMERIS_TYPE":0,"CLASSIFICATION_TYPE":"U","NORAD_CAT_ID":62931,"ELEMENT_SET_NO":999,"REV_AT_EPOCH":5763,"BSTAR":0.00028932532,"MEAN_MOTION_DOT":1.975e-5,"MEAN_MOTION_DDOT":0},{"OBJECT_NAME":"KINEIS-2A","OBJECT_ID":"2025-028E","EPOCH":"2026-03-06T10:12:03.163968","MEAN_MOTION":14.72089613,"ECCENTRICITY":0.00034484,"INCLINATION":98.0729,"RA_OF_ASC_NODE":120.9524,"ARG_OF_PERICENTER":203.6513,"MEAN_ANOMALY":156.4536,"EPHEMERIS_TYPE":0,"CLASSIFICATION_TYPE":"U","NORAD_CAT_ID":62932,"ELEMENT_SET_NO":999,"REV_AT_EPOCH":5748,"BSTAR":0.00025649134,"MEAN_MOTION_DOT":1.563e-5,"MEAN_MOTION_DDOT":0},{"OBJECT_NAME":"KINEIS-2B","OBJECT_ID":"2025-028G","EPOCH":"2026-03-06T14:00:35.577504","MEAN_MOTION":14.73104363,"ECCENTRICITY":0.00048872,"INCLINATION":97.9799,"RA_OF_ASC_NODE":120.2677,"ARG_OF_PERICENTER":116.0388,"MEAN_ANOMALY":244.1324,"EPHEMERIS_TYPE":0,"CLASSIFICATION_TYPE":"U","NORAD_CAT_ID":62934,"ELEMENT_SET_NO":999,"REV_AT_EPOCH":5755,"BSTAR":0.00028926211,"MEAN_MOTION_DOT":1.813e-5,"MEAN_MOTION_DDOT":0},{"OBJECT_NAME":"KINEIS-4E","OBJECT_ID":"2025-056A","EPOCH":"2026-03-06T21:35:55.027680","MEAN_MOTION":14.72350689,"ECCENTRICITY":7.85e-5,"INCLINATION":97.9937,"RA_OF_ASC_NODE":192.2537,"ARG_OF_PERICENTER":184.3479,"MEAN_ANOMALY":175.7721,"EPHEMERIS_TYPE":0,"CLASSIFICATION_TYPE":"U","NORAD_CAT_ID":63300,"ELEMENT_SET_NO":999,"REV_AT_EPOCH":5207,"BSTAR":0.0005194,"MEAN_MOTION_DOT":3.238e-5,"MEAN_MOTION_DDOT":0},{"OBJECT_NAME":"KINEIS-4C","OBJECT_ID":"2025-056B","EPOCH":"2026-03-05T21:25:51.278304","MEAN_MOTION":14.72336552,"ECCENTRICITY":3.554e-5,"INCLINATION":97.9972,"RA_OF_ASC_NODE":191.4275,"ARG_OF_PERICENTER":67.1158,"MEAN_ANOMALY":293.0087,"EPHEMERIS_TYPE":0,"CLASSIFICATION_TYPE":"U","NORAD_CAT_ID":63301,"ELEMENT_SET_NO":999,"REV_AT_EPOCH":5193,"BSTAR":0.00050581047,"MEAN_MOTION_DOT":3.151e-5,"MEAN_MOTION_DDOT":0},{"OBJECT_NAME":"KINEIS-4D","OBJECT_ID":"2025-056C","EPOCH":"2026-03-06T05:42:26.633664","MEAN_MOTION":14.72321809,"ECCENTRICITY":5.074e-5,"INCLINATION":97.9949,"RA_OF_ASC_NODE":191.7445,"ARG_OF_PERICENTER":311.1621,"MEAN_ANOMALY":48.9542,"EPHEMERIS_TYPE":0,"CLASSIFICATION_TYPE":"U","NORAD_CAT_ID":63302,"ELEMENT_SET_NO":999,"REV_AT_EPOCH":5198,"BSTAR":0.00045357903,"MEAN_MOTION_DOT":2.819e-5,"MEAN_MOTION_DDOT":0},{"OBJECT_NAME":"KINEIS-4A","OBJECT_ID":"2025-056D","EPOCH":"2026-03-05T22:20:55.996224","MEAN_MOTION":14.72296229,"ECCENTRICITY":0.00016399,"INCLINATION":97.9935,"RA_OF_ASC_NODE":191.3695,"ARG_OF_PERICENTER":259.3732,"MEAN_ANOMALY":100.7291,"EPHEMERIS_TYPE":0,"CLASSIFICATION_TYPE":"U","NORAD_CAT_ID":63303,"ELEMENT_SET_NO":999,"REV_AT_EPOCH":5193,"BSTAR":-0.00014085258,"MEAN_MOTION_DOT":-9.39e-6,"MEAN_MOTION_DDOT":0},{"OBJECT_NAME":"KINEIS-4B","OBJECT_ID":"2025-056E","EPOCH":"2026-03-06T19:08:49.608960","MEAN_MOTION":14.72290756,"ECCENTRICITY":0.0002301,"INCLINATION":97.9937,"RA_OF_ASC_NODE":192.2672,"ARG_OF_PERICENTER":198.4863,"MEAN_ANOMALY":161.6261,"EPHEMERIS_TYPE":0,"CLASSIFICATION_TYPE":"U","NORAD_CAT_ID":63304,"ELEMENT_SET_NO":999,"REV_AT_EPOCH":5205,"BSTAR":0.00049891,"MEAN_MOTION_DOT":3.104e-5,"MEAN_MOTION_DDOT":0}]
